; printobserver smoke print: a 20 mm square, two perimeters, five layers.
; This file is printobserver's own and carries only the closed set of
; commands AGENTS.md names; nothing here levels, calibrates or writes
; firmware settings.
; heat: tool0 205 C for 900 s
; heat: bed 60 C for 900 s
G21
G90
M82
M140 S60
M104 S205
G28
M190 S60
M109 S205
G92 E0
M107
; prime line along the front edge
G0 X20.000 Y10.000 Z0.20 F4800
G1 X180.000 Y10.000 E21.28649 F1000
G1 X180.000 Y10.400 E21.33970 F1000
G1 X20.000 Y10.400 E42.62619 F1000
G92 E0
M106 S85
; layer 1 of 5
G0 Z0.20 F4800
G0 X90.000 Y95.000 F4800
G1 X110.000 Y95.000 E0.66520 F1200
G1 X110.000 Y115.000 E1.33041 F1200
G1 X90.000 Y115.000 E1.99561 F1200
G1 X90.000 Y95.000 E2.66081 F1200
G0 X90.420 Y95.420 F4800
G1 X109.580 Y95.420 E3.29807 F1200
G1 X109.580 Y114.580 E3.93534 F1200
G1 X90.420 Y114.580 E4.57260 F1200
G1 X90.420 Y95.420 E5.20987 F1200
; layer 2 of 5
G0 Z0.40 F4800
G0 X90.000 Y95.000 F4800
G1 X110.000 Y95.000 E5.87507 F1200
G1 X110.000 Y115.000 E6.54027 F1200
G1 X90.000 Y115.000 E7.20548 F1200
G1 X90.000 Y95.000 E7.87068 F1200
G0 X90.420 Y95.420 F4800
G1 X109.580 Y95.420 E8.50794 F1200
G1 X109.580 Y114.580 E9.14521 F1200
G1 X90.420 Y114.580 E9.78247 F1200
G1 X90.420 Y95.420 E10.41974 F1200
; layer 3 of 5
G0 Z0.60 F4800
G0 X90.000 Y95.000 F4800
G1 X110.000 Y95.000 E11.08494 F1200
G1 X110.000 Y115.000 E11.75014 F1200
G1 X90.000 Y115.000 E12.41534 F1200
G1 X90.000 Y95.000 E13.08055 F1200
G0 X90.420 Y95.420 F4800
G1 X109.580 Y95.420 E13.71781 F1200
G1 X109.580 Y114.580 E14.35507 F1200
G1 X90.420 Y114.580 E14.99234 F1200
G1 X90.420 Y95.420 E15.62960 F1200
; layer 4 of 5
G0 Z0.80 F4800
G0 X90.000 Y95.000 F4800
G1 X110.000 Y95.000 E16.29481 F1200
G1 X110.000 Y115.000 E16.96001 F1200
G1 X90.000 Y115.000 E17.62521 F1200
G1 X90.000 Y95.000 E18.29041 F1200
G0 X90.420 Y95.420 F4800
G1 X109.580 Y95.420 E18.92768 F1200
G1 X109.580 Y114.580 E19.56494 F1200
G1 X90.420 Y114.580 E20.20221 F1200
G1 X90.420 Y95.420 E20.83947 F1200
; layer 5 of 5
G0 Z1.00 F4800
G0 X90.000 Y95.000 F4800
G1 X110.000 Y95.000 E21.50467 F1200
G1 X110.000 Y115.000 E22.16988 F1200
G1 X90.000 Y115.000 E22.83508 F1200
G1 X90.000 Y95.000 E23.50028 F1200
G0 X90.420 Y95.420 F4800
G1 X109.580 Y95.420 E24.13755 F1200
G1 X109.580 Y114.580 E24.77481 F1200
G1 X90.420 Y114.580 E25.41207 F1200
G1 X90.420 Y95.420 E26.04934 F1200
; done: cool down, park and release the motors
M107
M104 S0
M140 S0
M83
G91
G1 Z5.000 E-3.00000 F1200
G90
G0 X10.000 Y200.000 F4800
M84
